# From MPEC 2022-ED3
P/2021 U1 (Wierzchos),e,30.5571,246.7849,145.0739,8.516799,0.0396542,0.71287228,14.1943,09/24.0/2022,2000,g 14.5,4.0
# From MPEC 2022-L66
P/2021 U3 (Attard-Maury),e,69.9588,75.1072,335.2221,4.192117,0.1148296,0.54987667,38.3678,09/24.0/2022,2000,g 15.5,4.0
# From MPEC 2021-W31
C/2021 U4 (Leonard),e,152.8775,241.8125,237.2807,44.66942,0.0033013,0.95998415,0.9114,09/24.0/2022,2000,g 17.0,4.0
# From MPEC 2022-QD9
C/2021 U5 (Catalina),e,39.0506,182.7551,321.4599,217.2291,0.0003078,0.98912174,0.0000,01/26.5894/2022,2000,g 13.0,4.0
# From MPEC 2022-CN4
C/2021 V1 (Rankin),e,71.4540,207.6539,195.1162,618.8375,0.0000640,0.99513040,0.0000,04/30.4012/2022,2000,g 13.0,4.0
# From MPEC 2022-HC2
P/2021 V2 (Fuls),e,12.6941,232.2870,259.8267,9.049859,0.0362027,0.61362622,355.6765,09/24.0/2022,2000,g 10.0,4.0
# From MPEC 2022-S20
C/2021 X1 (Maury-Attard),e,140.1213,10.5843,334.6220,28959,0.0000002,0.99988833,0.0000,05/27.4712/2023,2000,g  7.0,4.0
# From MPEC 2022-RD9
A/2021 X2,h,07/08.1635/2022,137.1504,228.8024,193.2884,1.001572,2.994545,2000,16.0,2.0
# From MPEC 2022-S20
C/2021 Y1 (ATLAS),h,04/30.7018/2023,77.1867,244.7698,245.8086,1.000806,2.032593,2000,7.0,4.0
# From MPEC 2022-ED3
C/2022 A1 (Sarneczky),e,116.5199,285.5260,201.1987,791.9587,0.0000442,0.99841792,0.0000,01/31.1455/2022,2000,g 18.0,4.0
# From MPEC 2022-RD9
C/2022 A2 (PANSTARRS),h,02/18.2571/2023,108.1480,171.5800,88.3617,1.000472,1.735352,2000,9.5,4.0
# From MPEC 2022-M88
C/2022 A3 (Lemmon-ATLAS),e,88.3538,325.4837,234.8495,969.5650,0.0000326,0.99618049,0.0000,09/28.8266/2023,2000,g  8.0,4.0
# From MPEC 2022-K19
P/2022 B1 (Wierzchos),e,10.9906,148.8491,325.4772,5.465579,0.0771347,0.65299060,16.2494,09/24.0/2022,2000,g 16.5,4.0
# From MPEC 2022-K19
A/2022 B3,e,132.0537,286.1853,150.6925,891.1990,0.0000370,0.99585019,0.0000,01/17.6120/2022,2000,g 16.5,2.0
# From MPEC 2022-GA9
C/2022 B4 (Bok),e,20.0439,340.6597,152.9466,385.0138,0.0001305,0.99641710,0.0000,01/29.8897/2022,2000,g 21.0,4.0
# From MPEC 2022-H04
P/2022 C1 (PANSTARRS),e,4.7618,113.1432,9.3615,7.218340,0.0508216,0.44789104,16.4416,09/24.0/2022,2000,g 12.0,4.0
# From MPEC 2022-OB6
P/2022 C2 (PANSTARRS),e,9.9797,135.2706,89.2998,6.046023,0.0662978,0.44254055,3.2105,09/24.0/2022,2000,g 12.5,4.0
# From MPEC 2022-OB6
P/2022 C3 (PANSTARRS),e,12.8160,139.0570,93.9405,9.647556,0.0328911,0.54656872,2.7881,09/24.0/2022,2000,g 11.5,4.0
# From MPEC 2022-K19
P/2022 D1 (PANSTARRS),e,44.0689,47.9601,88.7007,7.401401,0.0489478,0.54708358,19.1862,09/24.0/2022,2000,g 12.5,4.0
# From MPEC 2022-K19
C/2022 D2 (Kowalski),e,22.6541,312.4665,177.7881,367.5713,0.0001399,0.99576935,0.0000,03/27.5713/2022,2000,g 17.0,4.0
# From MPEC 2022-L66
P/2022 E1 (Christensen),e,19.0042,113.3461,115.0895,3.781482,0.1340328,0.22111437,14.1300,09/24.0/2022,2000,g 13.5,4.0
# From MPEC 2022-O01
C/2022 E2 (ATLAS),h,09/13.7931/2024,137.1421,125.3570,41.6711,1.001432,3.666726,2000,5.0,4.0
# From MPEC 2022-S20
C/2022 E3 (ZTF),h,01/12.7852/2023,109.1688,302.5543,145.8147,1.000293,1.112245,2000,7.5,4.0
# From MPEC 2022-S20
C/2022 F1 (ATLAS),e,57.9717,350.6584,278.2599,87922,0.0000000,0.99993205,0.0000,08/05.0818/2022,2000,g  7.0,4.0
# From MPEC 2022-QD9
C/2022 F2 (NEOWISE),e,97.2937,58.6963,200.6279,23.90352,0.0084336,0.93369149,1.5564,09/24.0/2022,2000,g 14.5,4.0
# From MPEC 2022-P82
C/2022 H1 (PANSTARRS),e,49.8713,6.3683,246.2666,1057,0.0000287,0.99272310,0.0000,01/18.8588/2024,2000,g  6.0,4.0
# From MPEC 2022-QD9
C/2022 J1 (Maury-Attard),e,105.9309,280.7235,305.6613,47.61899,0.0029994,0.96631057,0.6507,09/24.0/2022,2000,g 14.9,4.0
# From MPEC 2022-N37
C/2022 J2 (Bok),e,149.0909,252.5499,133.0991,90.32047,0.0011482,0.97977570,0.0000,10/27.1133/2022,2000,g 15.5,4.0
# From MPEC 2022-S20
C/2022 K1 (Leonard),h,12/17.4166/2021,41.9753,136.2938,142.6517,1.002872,3.987049,2000,11.0,4.0
# From MPEC 2022-S20
C/2022 L1 (Catalina),e,123.4689,300.0249,59.8538,541.2947,0.0000783,0.99705981,0.0000,09/28.2487/2022,2000,g 15.8,4.0
# From MPEC 2022-S20
C/2022 L2 (ATLAS),h,03/12.4120/2024,129.3123,39.2468,199.9771,1.000987,2.691215,2000,6.5,4.0
# From MPEC 2022-S20
P/2022 L3 (ATLAS),e,21.5416,29.8050,10.3258,6.511733,0.0593143,0.62837601,357.8676,09/24.0/2022,2000,g 16.5,4.0
# From MPEC 2022-N37
C/2022 L4 (PANSTARRS),e,141.2297,66.0498,125.3200,271.4749,0.0002203,0.98889409,0.0000,12/08.7246/2021,2000,g 14.0,4.0
# From MPEC 2022-S20
P/2022 M1 (LONEOS-PANSTARRS),e,7.0266,322.9202,4.4604,4.891193,0.0911133,0.57854452,4.7964,09/24.0/2022,2000,g 17.0,4.0
# From MPEC 2022-R68
C/2022 N1 (Attard-Maury),e,164.7408,301.8582,41.0732,36.98751,0.0043815,0.95993773,0.0611,09/24.0/2022,2000,g 16.9,4.0
# From MPEC 2022-QD9
C/2022 N2 (PANSTARRS),h,07/31.4590/2025,5.5017,319.7391,75.3399,1.004168,3.826720,2000,6.0,4.0
# From MPEC 2022-RD9
C/2022 O1 (ATLAS),h,02/15.7220/2022,71.0440,49.9089,268.8946,1.005020,7.429538,2000,6.0,4.0
# From MPEC 2022-R68
P/2022 O2 (PANSTARRS),e,9.4260,330.4995,48.6459,6.311380,0.0621609,0.72164381,353.4654,09/24.0/2022,2000,g 16.0,4.0
# From MPEC 2022-S20
C/2022 P1 (NEOWISE),e,154.6081,205.0854,249.9145,18.64151,0.0122457,0.91441719,359.1988,09/24.0/2022,2000,g 13.0,4.0
# From MPEC 2022-S20
P/2022 P2 (ZTF),e,12.4045,291.4011,138.5340,4.833618,0.0927461,0.58690270,6.7670,09/24.0/2022,2000,g 12.5,4.0
# From MPEC 2022-S20
C/2022 P3 (ZTF),e,59.5185,72.2350,0.0872,246.1651,0.0002552,0.98959530,0.0000,07/27.3292/2022,2000,g 12.0,4.0
# From MPEC 2022-S20
C/2022 Q2 (ATLAS),e,151.4635,352.9657,44.2708,29.79207,0.0060611,0.94488447,359.2123,09/24.0/2022,2000,g 13.0,4.0
# From MPEC 2022-RC4
P/2022 R1 (PANSTARRS),e,7.4092,176.1731,222.8017,7.175438,0.0512780,0.50312434,340.3068,09/24.0/2022,2000,g 11.5,4.0
# From MPEC 2022-S87
C/2022 R2 (ATLAS),e,52.9530,60.1995,79.0442,36.70215,0.0044327,0.98288177,0.0000,10/25.4592/2022,2000,g 17.0,4.0
# From  98, 1083
1P/Halley,e,162.1905,59.2534,112.1740,17.87082,0.0130463,0.96654103,174.3131,09/24.0/2022,2000,g  4.0,6.0
# From MPEC 2022-S20
2P/Encke,e,11.4131,334.1954,187.1326,2.219689,0.2980340,0.84775621,242.8291,09/24.0/2022,2000,g 11.5,6.0
# From MPEC 2022-PB4
4P/Faye,e,8.0089,192.9250,207.0313,3.825691,0.1317162,0.57678374,50.0659,09/24.0/2022,2000,g  8.0,6.0
# From MPEC 2022-L66
6P/d'Arrest,e,19.5118,138.9351,178.0867,3.496944,0.1507201,0.61259548,55.9587,09/24.0/2022,2000,g  7.5,16.0
# From MPEC 2021-Y10
7P/Pons-Winnecke,e,22.3679,93.3384,172.5598,3.410971,0.1564542,0.63849135,75.8736,09/24.0/2022,2000,g 10.0,6.0
# From MPEC 2022-HC2
8P/Tuttle,e,54.9202,270.1962,207.4787,5.704285,0.0723439,0.82017426,28.3787,09/24.0/2022,2000,g  8.0,8.0
# From MPEC 2022-S20
9P/Tempel,e,10.4695,68.7039,179.3901,3.147356,0.1765165,0.50928917,35.8325,09/24.0/2022,2000,g  5.5,10.0
# From MPEC 2022-HC2
10P/Tempel,e,12.0376,117.8132,195.5162,3.061252,0.1840159,0.53829277,100.9912,09/24.0/2022,2000,g  5.0,10.0
# From MPEC 2022-K19
11P/Tempel-Swift-LINEAR,e,14.4258,238.8802,167.9788,3.283834,0.1656274,0.57736818,110.3989,09/24.0/2022,2000,g 17.0,4.0
# From MPEC 2022-RD9
12P/Pons-Brooks,e,74.1757,255.8269,198.9806,17.17206,0.0138507,0.95449208,352.0331,09/24.0/2022,2000,g  5.0,6.0
# From  27, 604
13P/Olbers,e,44.6168,85.9433,64.3850,16.79864,0.0143150,0.93004424,350.7527,09/24.0/2022,2000,g  5.0,6.0
# From MPEC 2021-F20
14P/Wolf,e,27.9257,202.0411,159.0857,4.258113,0.1121704,0.35719512,196.8369,09/24.0/2022,2000,g  5.5,12.0
# From MPEC 2022-ED3
15P/Finlay,e,6.7980,13.7087,347.8586,3.507595,0.1500341,0.71705515,65.6403,09/24.0/2022,2000,g 12.0,4.0
# From MPEC 2022-C56
16P/Brooks,e,3.0116,138.8694,245.2316,3.658281,0.1408603,0.48643368,73.7558,09/24.0/2022,2000,g  7.5,10.0
# From MPEC 2022-ED3
17P/Holmes,e,19.0304,326.6251,24.5391,3.637243,0.1420841,0.42757569,82.5585,09/24.0/2022,2000,g 10.0,6.0
# From MPEC 2022-S20
19P/Borrelly,e,29.3042,74.2410,351.9273,3.606042,0.1439322,0.63774844,33.7034,09/24.0/2022,2000,g  4.5,10.0
# From MPEC 2021-F20
21P/Giacobini-Zinner,e,32.0573,195.3450,172.8827,3.495090,0.1508400,0.71123453,222.2377,09/24.0/2022,2000,g 11.4,4.0
# From MPEC 2022-S20
22P/Kopff,e,4.7415,120.8206,163.0346,3.442310,0.1543225,0.54907396,29.2976,09/24.0/2022,2000,g  3.0,10.4
# From MPC 14747
23P/Brorsen-Metcalf,e,19.1998,312.1615,129.0356,16.94462,0.0141305,0.97192395,0.0000,08/07.0099/1989,2000,g 10.0,6.0
# From MPC110085
24P/Schaumasse,e,11.5071,78.3728,58.4190,4.054808,0.1207115,0.70771635,214.7702,09/24.0/2022,2000,g  6.5,14.0
# From MPEC 2022-K19
26P/Grigg-Skjellerup,e,22.4323,211.5393,2.1524,3.015054,0.1882615,0.64038259,273.8828,09/24.0/2022,2000,g 12.0,16.0
# From MPC 78188
27P/Crommelin,e,29.3210,250.6519,195.8776,9.181639,0.0354261,0.91881058,144.5414,09/24.0/2022,2000,g 12.0,8.0
# From MPEC 2022-F14
28P/Neujmin,e,14.3118,346.3345,347.4491,6.979658,0.0534506,0.77368696,29.9935,09/24.0/2022,2000,g  8.5,6.0
# From MPEC 2022-S20
29P/Schwassmann-Wachmann,e,9.3649,312.3910,50.5977,6.045680,0.0663035,0.04480766,83.3725,09/24.0/2022,2000,g  4.0,4.0
# From MPEC 2022-K19
30P/Reinmuth,e,8.0812,117.6912,9.4971,3.725019,0.1370917,0.51725286,265.0449,09/24.0/2022,2000,g  9.5,6.0
# From MPEC 2021-F20
31P/Schwassmann-Wachmann,e,4.5480,114.1056,17.9477,4.236139,0.1130443,0.19222446,133.2108,09/24.0/2022,2000,g 13.1,4.0
# From MPEC 2022-K19
32P/ComasSola,e,9.8926,54.7708,54.8798,4.544996,0.1017194,0.55746766,301.5713,09/24.0/2022,2000,g  6.5,8.0
# From MPEC 2013-O31
33P/Daniel,e,22.2949,66.3039,20.4763,4.087492,0.1192666,0.45171596,266.9969,09/24.0/2022,2000,g 10.0,12.0
# From  15, 452
35P/Herschel-Rigollet,e,65.282,356.738,28.962,28.5497,0.006461,0.9742793,0.000,01/31.3207/2092,2000,g  9.0,4.0
# From MPEC 2022-ED3
36P/Whipple,e,9.9528,181.8410,200.9961,4.136350,0.1171597,0.26910599,98.9167,09/24.0/2022,2000,g  8.5,6.0
# From MPEC 2021-F20
37P/Forbes,e,8.9534,314.5668,330.1124,3.461386,0.1530485,0.53324167,245.5032,09/24.0/2022,2000,g 13.8,4.0
# From MPEC 2018-S50
38P/Stephan-Oterma,e,18.3830,77.9176,359.4994,11.23633,0.0261678,0.85932041,36.9596,09/24.0/2022,2000,g  3.5,12.0
# From MPEC 2022-A21
